{
  "norad_id": 60376,
  "name": "STARLINK-32277",
  "history": [
    {
      "epoch": "2026-03-28T18:01:50.153088Z",
      "apogee_km": 475.9861473757328,
      "perigee_km": 474.3401217494129,
      "latitude_deg": 3.6569097165221136e-07,
      "longitude_deg": 124.60110285323128,
      "height_km": 476.3610734082783,
      "semi_major_axis_km": 6853.300134562573,
      "eccentricity": 0.00012009,
      "inclination_deg": 53.1611,
      "raan_deg": 221.2273,
      "arg_perigee_deg": 111.3432,
      "mean_anomaly_deg": 248.7697,
      "mean_motion_rev_day": 15.30217394
    }
  ]
}